GALAXY 33 (G-33)        
1 54026U 22128A   26165.73363028  .00000085  00000+0  00000+0 0  9995
2 54026   0.0133 348.4797 0001581  98.0955 307.5652  1.00271119 13711
GALAXY 34 (G-34)        
1 54027U 22128B   26165.73441028  .00000065  00000+0  00000+0 0  9991
2 54027   0.0147 347.5163 0001495 114.6990 296.2050  1.00275522 13888
ANGOSAT 2               
1 54033U 22131A   26166.19233493  .00000139  00000+0  00000+0 0  9990
2 54033   0.0229  71.1010 0000680  42.2979 242.3214  1.00270916 13454
EUTELSAT HOTBIRD 13F    
1 54048U 22134A   26166.03030796  .00000092  00000+0  00000+0 0  9991
2 54048   0.0506 293.1506 0002176  63.7609 290.3351  1.00274259 13352
LDPE-2                  
1 54219U 22144A   26165.60783747  .00000133  00000+0  00000+0 0  9991
2 54219   5.6068  63.6726 0001831 105.6144 152.5355  1.00530928 11817
EUTELSAT HOTBIRD 13G    
1 54225U 22146A   26165.99183307  .00000092  00000+0  00000+0 0  9992
2 54225   0.0503 231.9750 0002074 315.7830  85.5926  1.00268693  7440
ZHONGXING-19            
1 54230U 22148A   26166.14877917  .00000000  00000+0  00000+0 0  9994
2 54230   0.0237   3.1700 0002238 108.3827   8.6371  1.00270502 13368
GALAXY 31 (G-31)        
1 54243U 22153A   26166.01642035  .00000000  00000+0  00000+0 0  9991
2 54243   0.0202  23.3819 0000984  52.5467  72.2799  1.00270251  7113
GALAXY 32 (G-32)        
1 54244U 22153B   26165.95583884 -.00000197  00000+0  00000+0 0  9998
2 54244   0.0165 349.6788 0015287 254.3091 272.5395  1.00491998 13126
EUTELSAT 10B            
1 54259U 22157A   26166.18973492  .00000072  00000+0  00000+0 0  9993
2 54259   0.0658  98.8587 0001353  15.9716 226.9459  1.00266339 13003
GALAXY 35 (G-35)        
1 54741U 22170A   26166.16572440  .00000000  00000+0  00000+0 0  9991
2 54741   0.0194  13.5267 0001785  73.0567 143.4247  1.00269046 12871
GALAXY 36 (G-36)        
1 54742U 22170B   26165.95627219 -.00000180  00000+0  00000+0 0  9993
2 54742   0.0414 118.9764 0002457 324.6382  74.8974  1.00270930 12751
METEOSAT-12 (MTG-I1)    
1 54743U 22170C   26166.18765491 -.00000005  00000+0  00000+0 0  9991
2 54743   0.7360  22.6213 0003133  71.8952 236.0968  1.00272158 12956
SHIJIAN-23 (SJ-23)      
1 55131U 23002A   26165.72603134 -.00000234  00000+0  00000+0 0  9996
2 55131   3.7111  78.3435 0003801 271.6080 324.1789  1.00088085 12485
APSTAR-6E               
1 55239U 23005A   26165.28754068 -.00000309  00000+0  00000+0 0  9995
2 55239   0.0338 251.8070 0001017 319.4290 288.8897  1.00271177 18667
USA 342                 
1 55263U 23008A   26163.62596264  .00000000  00000+0  00000+0 0  9990
2 55263   0.0059 338.0459 0000206 258.5222 273.5711  1.00272733 12478
LDPE-3A                 
1 55264U 23008B   26166.17128211  .00000021  00000+0  00000+0 0  9990
2 55264   2.3427  81.6879 0001079  65.7765  76.8027  0.99144677 11799
ELEKTRO-L 4             
1 55506U 23016A   26165.80859189 -.00000052  00000+0  00000+0 0  9997
2 55506   0.0732 167.4568 0000744   6.7270 185.8179  1.00270616 12318
AMAZONAS NEXUS          
1 55508U 23017A   26166.03308956 -.00000278  00000+0  00000+0 0  9997
2 55508   0.0372  34.7066 0004880  31.2699 148.2680  1.00268306  7027
ZHONGXING-26            
1 55686U 23023A   26165.85608529 -.00000348  00000+0  00000+0 0  9997
2 55686   0.0684  71.1916 0003329  17.1102 248.1584  1.00274575 12202
LUCH-5X (OLYMP-K 2)     
1 55841U 23031A   26165.72672626  .00000039  00000+0  00000+0 0  9990
2 55841   0.0262  56.9714 0000517 175.5023 354.1527  1.00273625 11918
GAOFEN-13 02            
1 55912U 23036A   26166.18809674 -.00000215  00000+0  00000+0 0  9997
2 55912   1.0201   0.8710 0004140 335.2128 143.4089  1.00270779 12079
SES-18                  
1 55970U 23038A   26165.95341218 -.00000096  00000+0  00000+0 0  9999
2 55970   0.0148 303.3095 0000259 342.6198 217.4462  1.00270931 12083
SES-19                  
1 55971U 23038B   26166.22368888  .00000092  00000+0  00000+0 0  9998
2 55971   0.0104 341.4849 0001365  99.0728 128.5816  1.00270646 12074
INTELSAT 40E (IS-40E)   
1 56174U 23052A   26166.16572440  .00000000  00000+0  00000+0 0  9993
2 56174   0.0181  11.6254 0001983 115.5841 104.9125  1.00270323 11800
VIASAT-3 F1             
1 56370U 23060A   26165.81356216  .00000000  00000+0  00000+0 0  9992
2 56370   0.0241 338.0746 0000937  99.3054  29.6416  1.00270835 11411
ARCTURUS                
1 56371U 23060B   26166.01537919 -.00000060  00000+0  00000+0 0  9994
2 56371   2.7702  79.9782 0002500  47.9830 213.3715  1.00272301 11439
GS-1                    
1 56372U 23060C   26165.91571983 -.00000221  00000+0  00000+0 0  9991
2 56372   2.7203  79.8626 0003785 282.6047 319.7725  1.00275284  7515
BEIDOU-3 G4             
1 56564U 23066A   26166.21547503 -.00000277  00000+0  00000+0 0  9996
2 56564   0.4890 330.9331 0004289 182.0175 328.1348  1.00274296 11370
ARABSAT-7B (BADR-8)     
1 56757U 23075A   26166.19285492  .00000148  00000+0  00000+0 0  9999
2 56757   0.0785  30.3075 0004380 352.7494 335.8524  1.00270389 11090
NVS-01 (IRNSS-1J)       
1 56759U 23076A   26165.99951014 -.00000329  00000+0  00000+0 0  9991
2 56759   2.1711 244.4537 0003209  36.4829 111.6747  1.00265657 11091
NUSANTARA TIGA (SATRIA) 
1 57045U 23086A   26166.14539913 -.00000231  00000+0  00000+0 0  9991
2 57045   0.0356 350.3228 0003205 356.9240 114.5321  1.00267636  9747
