OBJECT_NAME,OBJECT_ID,EPOCH,MEAN_MOTION,ECCENTRICITY,INCLINATION,RA_OF_ASC_NODE,ARG_OF_PERICENTER,MEAN_ANOMALY,EPHEMERIS_TYPE,CLASSIFICATION_TYPE,NORAD_CAT_ID,ELEMENT_SET_NO,REV_AT_EPOCH,BSTAR,MEAN_MOTION_DOT,MEAN_MOTION_DDOT
GALAXY 33 (G-33),2022-128A,2026-06-14T17:36:25.656192,1.00271119,.00015812,0.0133,348.4797,98.0955,307.5652,0,U,54026,999,1371,0,.85E-6,0
GALAXY 34 (G-34),2022-128B,2026-06-14T17:37:33.048192,1.00275522,.00014951,0.0147,347.5163,114.6990,296.2050,0,U,54027,999,1388,0,.65E-6,0
ANGOSAT 2,2022-131A,2026-06-15T04:36:57.737952,1.00270916,.000068,0.0229,71.1010,42.2979,242.3214,0,U,54033,999,1345,0,.139E-5,0
EUTELSAT HOTBIRD 13F,2022-134A,2026-06-15T00:43:38.607744,1.00274259,.0002176,0.0506,293.1506,63.7609,290.3351,0,U,54048,999,1335,0,.92E-6,0
LDPE-2,2022-144A,2026-06-14T14:35:17.157408,1.00530928,.00018312,5.6068,63.6726,105.6144,152.5355,0,U,54219,999,1181,0,.133E-5,0
EUTELSAT HOTBIRD 13G,2022-146A,2026-06-14T23:48:14.377248,1.00268693,.0002074,0.0503,231.9750,315.7830,85.5926,0,U,54225,999,744,0,.92E-6,0
ZHONGXING-19,2022-148A,2026-06-15T03:34:14.520288,1.00270502,.0002238,0.0237,3.1700,108.3827,8.6371,0,U,54230,999,1336,0,0,0
GALAXY 31 (G-31),2022-153A,2026-06-15T00:23:38.718240,1.00270251,.0000984,0.0202,23.3819,52.5467,72.2799,0,U,54243,999,711,0,0,0
GALAXY 32 (G-32),2022-153B,2026-06-14T22:56:24.475776,1.00491998,.0015287,0.0165,349.6788,254.3091,272.5395,0,U,54244,999,1312,0,-.197E-5,0
EUTELSAT 10B,2022-157A,2026-06-15T04:33:13.097088,1.00266339,.0001353,0.0658,98.8587,15.9716,226.9459,0,U,54259,999,1300,0,.72E-6,0
GALAXY 35 (G-35),2022-170A,2026-06-15T03:58:38.588160,1.00269046,.0001785,0.0194,13.5267,73.0567,143.4247,0,U,54741,999,1287,0,0,0
GALAXY 36 (G-36),2022-170B,2026-06-14T22:57:01.917216,1.00270930,.0002457,0.0414,118.9764,324.6382,74.8974,0,U,54742,999,1275,0,-.18E-5,0
METEOSAT-12 (MTG-I1),2022-170C,2026-06-15T04:30:13.384224,1.00272158,.0003133,0.7360,22.6213,71.8952,236.0968,0,U,54743,999,1295,0,-.5E-7,0
SHIJIAN-23 (SJ-23),2023-002A,2026-06-14T17:25:29.107776,1.00088085,.0003801,3.7111,78.3435,271.6080,324.1789,0,U,55131,999,1248,0,-.234E-5,0
APSTAR-6E,2023-005A,2026-06-14T06:54:03.514752,1.00271177,.0001017,0.0338,251.8070,319.4290,288.8897,0,U,55239,999,1866,0,-.309E-5,0
USA 342,2023-008A,2026-06-12T15:01:23.172096,1.00272733,.0000206,0.0059,338.0459,258.5222,273.5711,0,U,55263,999,1247,0,0,0
LDPE-3A,2023-008B,2026-06-15T04:06:38.774304,0.99144677,.0001079,2.3427,81.6879,65.7765,76.8027,0,U,55264,999,1179,0,.21E-6,0
ELEKTRO-L 4,2023-016A,2026-06-14T19:24:22.339296,1.00270616,.0000744,0.0732,167.4568,6.7270,185.8179,0,U,55506,999,1231,0,-.52E-6,0
AMAZONAS NEXUS,2023-017A,2026-06-15T00:47:38.937984,1.00268306,.000488,0.0372,34.7066,31.2699,148.2680,0,U,55508,999,702,0,-.278E-5,0
ZHONGXING-26,2023-023A,2026-06-14T20:32:45.769056,1.00274575,.00033298,0.0684,71.1916,17.1102,248.1584,0,U,55686,999,1220,0,-.348E-5,0
LUCH-5X (OLYMP-K 2),2023-031A,2026-06-14T17:26:29.148864,1.00273625,.0000517,0.0262,56.9714,175.5023,354.1527,0,U,55841,999,1191,0,.39E-6,0
GAOFEN-13 02,2023-036A,2026-06-15T04:30:51.558336,1.00270779,.000414,1.0201,0.8710,335.2128,143.4089,0,U,55912,999,1207,0,-.215E-5,0
SES-18,2023-038A,2026-06-14T22:52:54.812352,1.00270931,.0000259,0.0148,303.3095,342.6198,217.4462,0,U,55970,999,1208,0,-.96E-6,0
SES-19,2023-038B,2026-06-15T05:22:06.719232,1.00270646,.0001365,0.0104,341.4849,99.0728,128.5816,0,U,55971,999,1207,0,.92E-6,0
INTELSAT 40E (IS-40E),2023-052A,2026-06-15T03:58:38.588160,1.00270323,.0001983,0.0181,11.6254,115.5841,104.9125,0,U,56174,999,1180,0,0,0
VIASAT-3 F1,2023-060A,2026-06-14T19:31:31.770624,1.00270835,.0000937,0.0241,338.0746,99.3054,29.6416,0,U,56370,999,1141,0,0,0
ARCTURUS,2023-060B,2026-06-15T00:22:08.762016,1.00272301,.00025,2.7702,79.9782,47.9830,213.3715,0,U,56371,999,1143,0,-.6E-6,0
GS-1,2023-060C,2026-06-14T21:58:38.193312,1.00275284,.0003785,2.7203,79.8626,282.6047,319.7725,0,U,56372,999,751,0,-.221E-5,0
BEIDOU-3 G4,2023-066A,2026-06-15T05:10:17.042592,1.00274296,.0004289,0.4890,330.9331,182.0175,328.1348,0,U,56564,999,1137,0,-.277E-5,0
ARABSAT-7B (BADR-8),2023-075A,2026-06-15T04:37:42.665088,1.00270389,.000438,0.0785,30.3075,352.7494,335.8524,0,U,56757,999,1109,0,.148E-5,0
NVS-01 (IRNSS-1J),2023-076A,2026-06-14T23:59:17.676096,1.00265657,.0003209,2.1711,244.4537,36.4829,111.6747,0,U,56759,999,1109,0,-.329E-5,0
NUSANTARA TIGA (SATRIA),2023-086A,2026-06-15T03:29:22.484832,1.00267636,.0003205,0.0356,350.3228,356.9240,114.5321,0,U,57045,999,974,0,-.231E-5,0
